let sat = [{"OBJECT_NAME":"STARLINK-2050","OBJECT_ID":"2021-005J","EPOCH":"2022-09-07T17:47:54.893184","MEAN_MOTION":15.06391873,"ECCENTRICITY":0.0001352,"INCLINATION":53.0565,"RA_OF_ASC_NODE":43.0412,"ARG_OF_PERICENTER":90.3881,"MEAN_ANOMALY":269.7263,"EPHEMERIS_TYPE":0,"CLASSIFICATION_TYPE":"U","NORAD_CAT_ID":47357,"ELEMENT_SET_NO":999,"REV_AT_EPOCH":9122,"BSTAR":4.4356e-5,"MEAN_MOTION_DOT":3.79e-6,"MEAN_MOTION_DDOT":0},{"OBJECT_NAME":"STARLINK-2055","OBJECT_ID":"2021-005K","EPOCH":"2022-09-07T19:26:04.509024","MEAN_MOTION":15.06394881,"ECCENTRICITY":0.0001355,"INCLINATION":53.055,"RA_OF_ASC_NODE":12.7381,"ARG_OF_PERICENTER":82.9024,"MEAN_ANOMALY":277.2119,"EPHEMERIS_TYPE":0,"CLASSIFICATION_TYPE":"U","NORAD_CAT_ID":47358,"ELEMENT_SET_NO":999,"REV_AT_EPOCH":9070,"BSTAR":0.00050385,"MEAN_MOTION_DOT":7.23e-5,"MEAN_MOTION_DDOT":0},{"OBJECT_NAME":"STARLINK-2069","OBJECT_ID":"2021-005L","EPOCH":"2022-09-07T18:07:08.971680","MEAN_MOTION":15.06394769,"ECCENTRICITY":0.0001412,"INCLINATION":53.0562,"RA_OF_ASC_NODE":37.9739,"ARG_OF_PERICENTER":88.9757,"MEAN_ANOMALY":271.1394,"EPHEMERIS_TYPE":0,"CLASSIFICATION_TYPE":"U","NORAD_CAT_ID":47359,"ELEMENT_SET_NO":999,"REV_AT_EPOCH":9034,"BSTAR":7.0013e-5,"MEAN_MOTION_DOT":7.61e-6,"MEAN_MOTION_DDOT":0},{"OBJECT_NAME":"STARLINK-2070","OBJECT_ID":"2021-005M","EPOCH":"2022-09-07T16:40:55.125408","MEAN_MOTION":15.06379538,"ECCENTRICITY":0.0001303,"INCLINATION":53.0556,"RA_OF_ASC_NODE":8.2575,"ARG_OF_PERICENTER":85.0416,"MEAN_ANOMALY":275.0721,"EPHEMERIS_TYPE":0,"CLASSIFICATION_TYPE":"U","NORAD_CAT_ID":47360,"ELEMENT_SET_NO":999,"REV_AT_EPOCH":9076,"BSTAR":-4.8074e-5,"MEAN_MOTION_DOT":-9.97e-6,"MEAN_MOTION_DDOT":0},{"OBJECT_NAME":"STARLINK-2071","OBJECT_ID":"2021-005N","EPOCH":"2022-09-08T03:35:45.547008","MEAN_MOTION":15.06387065,"ECCENTRICITY":0.0001466,"INCLINATION":53.0553,"RA_OF_ASC_NODE":11.2159,"ARG_OF_PERICENTER":97.3699,"MEAN_ANOMALY":262.7456,"EPHEMERIS_TYPE":0,"CLASSIFICATION_TYPE":"U","NORAD_CAT_ID":47361,"ELEMENT_SET_NO":999,"REV_AT_EPOCH":9170,"BSTAR":0.00038419,"MEAN_MOTION_DOT":5.444e-5,"MEAN_MOTION_DDOT":0},{"OBJECT_NAME":"STARLINK-2076","OBJECT_ID":"2021-005P","EPOCH":"2022-09-07T20:43:04.082880","MEAN_MOTION":15.06391004,"ECCENTRICITY":0.0001211,"INCLINATION":53.0558,"RA_OF_ASC_NODE":42.4979,"ARG_OF_PERICENTER":86.7893,"MEAN_ANOMALY":273.3235,"EPHEMERIS_TYPE":0,"CLASSIFICATION_TYPE":"U","NORAD_CAT_ID":47362,"ELEMENT_SET_NO":999,"REV_AT_EPOCH":9029,"BSTAR":-4.9226e-5,"MEAN_MOTION_DOT":-1.014e-5,"MEAN_MOTION_DDOT":0},{"OBJECT_NAME":"STARLINK-2077","OBJECT_ID":"2021-005Q","EPOCH":"2022-09-07T22:23:54.587616","MEAN_MOTION":15.06397624,"ECCENTRICITY":0.0001341,"INCLINATION":53.0561,"RA_OF_ASC_NODE":42.1657,"ARG_OF_PERICENTER":80.3366,"MEAN_ANOMALY":279.7774,"EPHEMERIS_TYPE":0,"CLASSIFICATION_TYPE":"U","NORAD_CAT_ID":47363,"ELEMENT_SET_NO":999,"REV_AT_EPOCH":9030,"BSTAR":0.00011661,"MEAN_MOTION_DOT":1.456e-5,"MEAN_MOTION_DDOT":0},{"OBJECT_NAME":"STARLINK-2081","OBJECT_ID":"2021-005T","EPOCH":"2022-09-07T19:49:59.308032","MEAN_MOTION":15.06388372,"ECCENTRICITY":0.0001421,"INCLINATION":53.0554,"RA_OF_ASC_NODE":42.6657,"ARG_OF_PERICENTER":93.6402,"MEAN_ANOMALY":266.4749,"EPHEMERIS_TYPE":0,"CLASSIFICATION_TYPE":"U","NORAD_CAT_ID":47366,"ELEMENT_SET_NO":999,"REV_AT_EPOCH":9028,"BSTAR":0.00011719,"MEAN_MOTION_DOT":1.464e-5,"MEAN_MOTION_DDOT":0},{"OBJECT_NAME":"STARLINK-2082","OBJECT_ID":"2021-005U","EPOCH":"2022-09-07T17:16:03.344160","MEAN_MOTION":15.06396495,"ECCENTRICITY":0.0001358,"INCLINATION":53.0545,"RA_OF_ASC_NODE":43.1311,"ARG_OF_PERICENTER":79.84,"MEAN_ANOMALY":280.2742,"EPHEMERIS_TYPE":0,"CLASSIFICATION_TYPE":"U","NORAD_CAT_ID":47367,"ELEMENT_SET_NO":999,"REV_AT_EPOCH":9027,"BSTAR":7.2409e-5,"MEAN_MOTION_DOT":7.97e-6,"MEAN_MOTION_DDOT":0},{"OBJECT_NAME":"STARLINK-2084","OBJECT_ID":"2021-005V","EPOCH":"2022-09-07T20:16:32.359872","MEAN_MOTION":15.06389658,"ECCENTRICITY":0.000134,"INCLINATION":53.0564,"RA_OF_ASC_NODE":42.5704,"ARG_OF_PERICENTER":91.7338,"MEAN_ANOMALY":268.3804,"EPHEMERIS_TYPE":0,"CLASSIFICATION_TYPE":"U","NORAD_CAT_ID":47368,"ELEMENT_SET_NO":999,"REV_AT_EPOCH":9029,"BSTAR":4.9646e-5,"MEAN_MOTION_DOT":4.58e-6,"MEAN_MOTION_DDOT":0},{"OBJECT_NAME":"STARLINK-2085","OBJECT_ID":"2021-005W","EPOCH":"2022-09-07T17:12:02.728800","MEAN_MOTION":15.06391269,"ECCENTRICITY":0.000145,"INCLINATION":53.0557,"RA_OF_ASC_NODE":23.1348,"ARG_OF_PERICENTER":85.4275,"MEAN_ANOMALY":274.6879,"EPHEMERIS_TYPE":0,"CLASSIFICATION_TYPE":"U","NORAD_CAT_ID":47369,"ELEMENT_SET_NO":999,"REV_AT_EPOCH":9055,"BSTAR":5.3904e-5,"MEAN_MOTION_DOT":5.21e-6,"MEAN_MOTION_DDOT":0},{"OBJECT_NAME":"STARLINK-2086","OBJECT_ID":"2021-005X","EPOCH":"2022-09-07T16:12:23.029920","MEAN_MOTION":15.06385855,"ECCENTRICITY":0.0001465,"INCLINATION":53.0568,"RA_OF_ASC_NODE":3.3495,"ARG_OF_PERICENTER":77.8331,"MEAN_ANOMALY":282.2822,"EPHEMERIS_TYPE":0,"CLASSIFICATION_TYPE":"U","NORAD_CAT_ID":47370,"ELEMENT_SET_NO":999,"REV_AT_EPOCH":9083,"BSTAR":-0.00013551,"MEAN_MOTION_DOT":-2.298e-5,"MEAN_MOTION_DDOT":0},{"OBJECT_NAME":"STARLINK-2088","OBJECT_ID":"2021-005Y","EPOCH":"2022-09-07T17:26:40.847424","MEAN_MOTION":15.06392765,"ECCENTRICITY":0.0001435,"INCLINATION":53.0564,"RA_OF_ASC_NODE":43.118,"ARG_OF_PERICENTER":84.3502,"MEAN_ANOMALY":275.765,"EPHEMERIS_TYPE":0,"CLASSIFICATION_TYPE":"U","NORAD_CAT_ID":47371,"ELEMENT_SET_NO":999,"REV_AT_EPOCH":9027,"BSTAR":8.8796e-5,"MEAN_MOTION_DOT":1.041e-5,"MEAN_MOTION_DDOT":0},{"OBJECT_NAME":"STARLINK-2089","OBJECT_ID":"2021-005Z","EPOCH":"2022-09-07T20:30:31.144032","MEAN_MOTION":15.06394018,"ECCENTRICITY":0.0002013,"INCLINATION":53.0574,"RA_OF_ASC_NODE":37.8583,"ARG_OF_PERICENTER":100.5532,"MEAN_ANOMALY":259.5684,"EPHEMERIS_TYPE":0,"CLASSIFICATION_TYPE":"U","NORAD_CAT_ID":47372,"ELEMENT_SET_NO":999,"REV_AT_EPOCH":9035,"BSTAR":4.0022e-5,"MEAN_MOTION_DOT":3.14e-6,"MEAN_MOTION_DDOT":0},{"OBJECT_NAME":"STARLINK-2092","OBJECT_ID":"2021-005AA","EPOCH":"2022-09-07T17:21:22.191264","MEAN_MOTION":15.06388658,"ECCENTRICITY":0.0001332,"INCLINATION":53.0565,"RA_OF_ASC_NODE":43.116,"ARG_OF_PERICENTER":83.069,"MEAN_ANOMALY":277.0451,"EPHEMERIS_TYPE":0,"CLASSIFICATION_TYPE":"U","NORAD_CAT_ID":47373,"ELEMENT_SET_NO":999,"REV_AT_EPOCH":9027,"BSTAR":-2.2483e-5,"MEAN_MOTION_DOT":-6.16e-6,"MEAN_MOTION_DDOT":0},{"OBJECT_NAME":"STARLINK-2093","OBJECT_ID":"2021-005AB","EPOCH":"2022-09-07T17:51:52.451712","MEAN_MOTION":15.06386364,"ECCENTRICITY":0.0001434,"INCLINATION":53.0562,"RA_OF_ASC_NODE":43.0146,"ARG_OF_PERICENTER":85.7007,"MEAN_ANOMALY":274.4146,"EPHEMERIS_TYPE":0,"CLASSIFICATION_TYPE":"U","NORAD_CAT_ID":47374,"ELEMENT_SET_NO":999,"REV_AT_EPOCH":9027,"BSTAR":-5.5764e-5,"MEAN_MOTION_DOT":-1.112e-5,"MEAN_MOTION_DDOT":0},{"OBJECT_NAME":"STARLINK-2094","OBJECT_ID":"2021-005AC","EPOCH":"2022-09-07T19:34:03.825984","MEAN_MOTION":15.06394588,"ECCENTRICITY":0.0001691,"INCLINATION":53.0567,"RA_OF_ASC_NODE":42.7048,"ARG_OF_PERICENTER":99.3173,"MEAN_ANOMALY":260.8007,"EPHEMERIS_TYPE":0,"CLASSIFICATION_TYPE":"U","NORAD_CAT_ID":47375,"ELEMENT_SET_NO":999,"REV_AT_EPOCH":9028,"BSTAR":6.1443e-5,"MEAN_MOTION_DOT":6.34e-6,"MEAN_MOTION_DDOT":0}]