STARLINK-2050           
1 47357U 21005J   22250.74160756  .00000379  00000+0  44356-4 0  9995
2 47357  53.0565  43.0412 0001352  90.3881 269.7263 15.06391873 91228
STARLINK-2055           
1 47358U 21005K   22250.80977441  .00007230  00000+0  50385-3 0  9991
2 47358  53.0550  12.7381 0001355  82.9024 277.2119 15.06394881 90708
STARLINK-2069           
1 47359U 21005L   22250.75496495  .00000761  00000+0  70013-4 0  9994
2 47359  53.0562  37.9739 0001412  88.9757 271.1394 15.06394769 90344
STARLINK-2070           
1 47360U 21005M   22250.69508247 -.00000997  00000+0 -48074-4 0  9993
2 47360  53.0556   8.2575 0001303  85.0416 275.0721 15.06379538 90767
STARLINK-2071           
1 47361U 21005N   22251.14983272  .00005444  00000+0  38419-3 0  9991
2 47361  53.0553  11.2159 0001466  97.3699 262.7456 15.06387065 91703
STARLINK-2076           
1 47362U 21005P   22250.86324170 -.00001014  00000+0 -49226-4 0  9996
2 47362  53.0558  42.4979 0001211  86.7893 273.3235 15.06391004 90295
STARLINK-2077           
1 47363U 21005Q   22250.93327069  .00001456  00000+0  11661-3 0  9994
2 47363  53.0561  42.1657 0001341  80.3366 279.7774 15.06397624 90303
STARLINK-2081           
1 47366U 21005T   22250.82638088  .00001464  00000+0  11719-3 0  9994
2 47366  53.0554  42.6657 0001421  93.6402 266.4749 15.06388372 90282
STARLINK-2082           
1 47367U 21005U   22250.71948315  .00000797  00000+0  72409-4 0  9992
2 47367  53.0545  43.1311 0001358  79.8400 280.2742 15.06396495 90270
STARLINK-2084           
1 47368U 21005V   22250.84481898  .00000458  00000+0  49646-4 0  9996
2 47368  53.0564  42.5704 0001340  91.7338 268.3804 15.06389658 90296
STARLINK-2085           
1 47369U 21005W   22250.71669825  .00000521  00000+0  53904-4 0  9994
2 47369  53.0557  23.1348 0001450  85.4275 274.6879 15.06391269 90552
STARLINK-2086           
1 47370U 21005X   22250.67526655 -.00002298  00000+0 -13551-3 0  9992
2 47370  53.0568   3.3495 0001465  77.8331 282.2822 15.06385855 90831
STARLINK-2088           
1 47371U 21005Y   22250.72686166  .00001041  00000+0  88796-4 0  9990
2 47371  53.0564  43.1180 0001435  84.3502 275.7650 15.06392765 90273
STARLINK-2089           
1 47372U 21005Z   22250.85452713  .00000314  00000+0  40022-4 0  9996
2 47372  53.0574  37.8583 0002013 100.5532 259.5684 15.06394018 90358
STARLINK-2092           
1 47373U 21005AA  22250.72317351 -.00000616  00000+0 -22483-4 0  9999
2 47373  53.0565  43.1160 0001332  83.0690 277.0451 15.06388658 90274
STARLINK-2093           
1 47374U 21005AB  22250.74435708 -.00001112  00000+0 -55764-4 0  9999
2 47374  53.0562  43.0146 0001434  85.7007 274.4146 15.06386364 90273
STARLINK-2094           
1 47375U 21005AC  22250.81532206  .00000634  00000+0  61443-4 0  9996
2 47375  53.0567  42.7048 0001691  99.3173 260.8007 15.06394588 90289
